NORAD_CAT_ID,OBJECT_NAME,OBJECT_TYPE,EPOCH,MEAN_MOTION,ECCENTRICITY,INCLINATION,RA_OF_ASC_NODE,ARG_OF_PERICENTER,MEAN_ANOMALY,BSTAR,MEAN_MOTION_DOT,MEAN_MOTION_DDOT,TLE_LINE0,TLE_LINE1,TLE_LINE2,SEMIMAJOR_AXIS,PERIOD,APOGEE,PERIGEE,DECAYED
55789.0,STARLINK-5815,PAYLOAD,2023-09-28 11:22:51,14.99295143,0.0002952,69.9982,296.4641,265.773,94.3092,3.8115e-05,3.72e-06,0.0,0 STARLINK-5815,1 55789U 23028BA  23271.47420276  .00000372  00000-0  38115-4 0  9990,2 55789  69.9982 296.4641 0002952 265.7730  94.3092 14.99295143 33234,6947.21,96.045,571.126,567.024,0.0
55789.0,STARLINK-5815,PAYLOAD,2023-09-29 09:47:51,14.99301001,0.0002954,69.9985,294.1057,265.775,94.3072,-7.9175e-06,-1.91e-06,0.0,0 STARLINK-5815,1 55789U 23028BA  23272.40823585 -.00000191  00000-0 -79175-5 0  9997,2 55789  69.9985 294.1057 0002954 265.7750  94.3072 14.99301001 33360,6947.192,96.045,571.109,567.005,0.0
55789.0,STARLINK-5815,PAYLOAD,2023-09-29 11:23:55,14.99301453,0.0002948,69.9985,293.9373,265.7246,94.3577,-2.491e-06,-1.24e-06,0.0,0 STARLINK-5815,1 55789U 23028BA  23272.47495217 -.00000124  00000-0 -24910-5 0  9994,2 55789  69.9985 293.9373 0002948 265.7246  94.3577 14.99301453 33384,6947.19,96.045,571.103,567.007,0.0
55789.0,STARLINK-5815,PAYLOAD,2023-09-30 05:00:43,14.99304545,0.0003081,69.9985,292.0831,268.7354,91.3453,5.8484e-05,6.22e-06,0.0,0 STARLINK-5815,1 55789U 23028BA  23273.20883156  .00000622  00000-0  58484-4 0  9992,2 55789  69.9985 292.0831 0003081 268.7354  91.3453 14.99304545 33492,6947.181,96.045,571.186,566.905,0.0
55789.0,STARLINK-5815,PAYLOAD,2023-09-30 09:48:55,14.99303753,0.0002988,69.9988,291.578,267.8298,92.2519,0.00011618,1.328e-05,0.0,0 STARLINK-5815,1 55789U 23028BA  23273.40898026  .00001328  00000-0  11618-3 0  9997,2 55789  69.9988 291.5780 0002988 267.8298  92.2519 14.99303753 33510,6947.183,96.045,571.124,566.972,0.0
55789.0,STARLINK-5815,PAYLOAD,2023-10-01 01:49:39,14.99298566,0.0002889,69.9992,289.8932,269.0926,90.9902,-3.6229e-05,-5.37e-06,0.0,0 STARLINK-5815,1 55789U 23028BA  23274.07615476 -.00000537  00000-0 -36229-4 0  9996,2 55789  69.9992 289.8932 0002889 269.0926  90.9902 14.99298566 33613,6947.199,96.045,571.071,567.057,0.0
55789.0,STARLINK-5815,PAYLOAD,2023-10-01 11:26:05,14.99300111,0.0002868,69.9994,288.8825,268.6437,91.4394,-1.6854e-05,-3e-06,0.0,0 STARLINK-5815,1 55789U 23028BA  23274.47645404 -.00000300  00000-0 -16854-4 0  9994,2 55789  69.9994 288.8825 0002868 268.6437  91.4394 14.99300111 33682,6947.195,96.045,571.052,567.067,0.0
55789.0,STARLINK-5815,PAYLOAD,2023-10-01 17:50:23,14.99299085,0.0002817,69.9995,288.2083,270.3331,89.7506,-6.692e-05,-9.13e-06,0.0,0 STARLINK-5815,1 55789U 23028BA  23274.74332349 -.00000913  00000-0 -66920-4 0  9994,2 55789  69.9995 288.2083 0002817 270.3331  89.7506 14.99299085 33727,6947.198,96.045,571.02,567.106,0.0
55789.0,STARLINK-5815,PAYLOAD,2023-10-02 01:50:44,14.99293267,0.0002753,69.9995,287.3659,270.771,89.3134,5.5881e-05,5.9e-06,0.0,0 STARLINK-5815,1 55789U 23028BA  23275.07690722  .00000590  00000-0  55881-4 0  9996,2 55789  69.9995 287.3659 0002753 270.7710  89.3134 14.99293267 33763,6947.216,96.045,570.993,567.168,0.0
55789.0,STARLINK-5815,PAYLOAD,2023-10-02 17:51:27,14.99300858,0.0002841,69.9996,285.6812,269.8304,90.253,-1.0903e-05,-2.27e-06,0.0,0 STARLINK-5815,1 55789U 23028BA  23275.74407252 -.00000227  00000-0 -10903-4 0  9999,2 55789  69.9996 285.6812 0002841 269.8304  90.2530 14.99300858 33870,6947.192,96.045,571.031,567.084,0.0
55789.0,STARLINK-5815,PAYLOAD,2023-10-03 03:27:53,14.99302794,0.000297,69.9993,284.67,268.1698,91.9122,5.8699e-05,6.24e-06,0.0,0 STARLINK-5815,1 55789U 23028BA  23276.14436930  .00000624  00000-0  58699-4 0  9992,2 55789  69.9993 284.6700 0002970 268.1698  91.9122 14.99302794 33925,6947.186,96.045,571.115,566.988,0.0
55789.0,STARLINK-5815,PAYLOAD,2023-10-03 09:52:22,14.99156429,0.0002514,69.9993,283.9967,285.6191,74.4691,-0.0015147,-0.00018509,0.0,0 STARLINK-5815,1 55789U 23028BA  23276.41137233 -.00018509  00000-0 -15147-2 0  9998,2 55789  69.9993 283.9967 0002514 285.6191  74.4691 14.99156429 33961,6947.638,96.054,571.25,567.757,0.0
55789.0,STARLINK-5815,PAYLOAD,2023-10-04 16:18:25,14.98919948,0.000517,70.0001,280.7975,224.0407,136.0341,-0.0029373,-0.00035509,0.0,0 STARLINK-5815,1 55789U 23028BA  23277.67945751 -.00035509  00000-0 -29373-2 0  9994,2 55789  70.0001 280.7975 0005170 224.0407 136.0341 14.98919948 34157,6948.369,96.069,573.826,566.642,0.0
55789.0,STARLINK-5815,PAYLOAD,2023-10-05 01:55:30,14.98661262,0.0002876,69.9989,279.791,266.2695,93.8136,-0.0050023,-0.00059783,0.0,0 STARLINK-5815,1 55789U 23028BA  23278.08021352 -.00059783  00000-0 -50023-2 0  9998,2 55789  69.9989 279.7910 0002876 266.2695  93.8136 14.98661262 34215,6949.169,96.086,573.032,569.035,0.0
55789.0,STARLINK-5815,PAYLOAD,2023-10-05 09:56:06,14.9862706,0.0003411,69.9991,278.9496,277.9234,82.1538,-0.0045941,-0.00054904,0.0,0 STARLINK-5815,1 55789U 23028BA  23278.41396019 -.00054904  00000-0 -45941-2 0  9993,2 55789  69.9991 278.9496 0003411 277.9234  82.1538 14.98627060 34262,6949.274,96.088,573.51,568.769,0.0
55789.0,STARLINK-5815,PAYLOAD,2023-10-05 17:56:44,14.9855291,0.0002987,69.9991,278.1077,279.7872,80.295,-0.0036896,-0.00044094,0.0,0 STARLINK-5815,1 55789U 23028BA  23278.74773440 -.00044094  00000-0 -36896-2 0  9994,2 55789  69.9991 278.1077 0002987 279.7872  80.2950 14.98552910 34318,6949.504,96.093,573.444,569.293,0.0
55789.0,STARLINK-5815,PAYLOAD,2023-10-06 01:57:27,14.98328821,0.0003011,69.9991,277.2662,270.6309,89.4505,6.1417e-06,-2e-07,0.0,0 STARLINK-5815,1 55789U 23028BA  23279.08156705 -.00000020  00000-0  61417-5 0  9991,2 55789  69.9991 277.2662 0003011 270.6309  89.4505 14.98328821 34366,6950.197,96.107,574.154,569.969,0.0
55789.0,STARLINK-5815,PAYLOAD,2023-10-06 14:00:01,14.98343341,0.0003108,70.0013,276.0007,272.9952,272.9647,-0.0031845,-0.00037899,0.0,0 STARLINK-5815,1 55789U 23028BA  23279.58335648 -.00037899  00000-0 -31845-2 0  9995,2 55789  70.0013 276.0007 0003108 272.9952 272.9647 14.98343341  5852,6950.152,96.106,574.177,569.857,0.0
55789.0,STARLINK-5815,PAYLOAD,2023-10-06 22:00:01,14.98305768,0.0003129,70.0015,275.1605,267.1272,276.3176,0.0047235,0.0005669,0.0,0 STARLINK-5815,1 55789U 23028BA  23279.91668981  .00056690  00000-0  47235-2 0  9999,2 55789  70.0015 275.1605 0003129 267.1272 276.3176 14.98305768  5904,6950.268,96.109,574.308,569.958,0.0
55789.0,STARLINK-5815,PAYLOAD,2023-10-07 06:00:00,14.9834566,0.0003133,70.0015,274.3201,272.3289,268.5417,-0.002879,-0.00034291,0.0,0 STARLINK-5815,1 55789U 23028BA  23280.25001157 -.00034291  00000-0 -28790-2 0  9994,2 55789  70.0015 274.3201 0003133 272.3289 268.5417 14.98345660 34546,6950.144,96.106,574.187,569.832,0.0
55789.0,STARLINK-5815,PAYLOAD,2023-10-07 14:00:01,14.98343183,0.0003047,70.0011,273.4797,274.5211,263.8323,-0.0033244,-0.0003955,0.0,0 STARLINK-5815,1 55789U 23028BA  23280.58334491 -.00039550  00000-0 -33244-2 0  9993,2 55789  70.0011 273.4797 0003047 274.5211 263.8323 14.98343183  5859,6950.152,96.106,574.135,569.899,0.0
55789.0,STARLINK-5815,PAYLOAD,2023-10-07 22:00:00,14.98308793,0.0003042,70.0013,272.6395,268.7598,267.0776,0.0044935,0.00053908,0.0,0 STARLINK-5815,1 55789U 23028BA  23280.91667824  .00053908  00000-0  44935-2 0  9999,2 55789  70.0013 272.6395 0003042 268.7598 267.0776 14.98308793 34649,6950.258,96.108,574.238,570.009,0.0
55789.0,STARLINK-5815,PAYLOAD,2023-10-08 14:00:01,14.98343635,0.0003021,70.0009,270.9586,273.0008,257.8065,-0.0037133,-0.00044137,0.0,0 STARLINK-5815,1 55789U 23028BA  23281.58334491 -.00044137  00000-0 -37133-2 0  9992,2 55789  70.0009 270.9586 0003021 273.0008 257.8065 14.98343635 34742,6950.151,96.106,574.115,569.916,0.0
55789.0,STARLINK-5815,PAYLOAD,2023-10-08 22:00:00,14.98311522,0.0003038,70.001,270.1182,266.4264,261.8637,0.0044003,0.00052783,0.0,0 STARLINK-5815,1 55789U 23028BA  23281.91667824  .00052783  00000-0  44003-2 0  9996,2 55789  70.0010 270.1182 0003038 266.4264 261.8637 14.98311522  5845,6950.25,96.108,574.227,570.004,0.0
55789.0,STARLINK-5815,PAYLOAD,2023-10-09 02:03:30,14.98328655,0.0002876,70.0003,269.693,267.0337,93.0493,-4.4161e-06,-1.46e-06,0.0,0 STARLINK-5815,1 55789U 23028BA  23282.08576605 -.00000146  00000-0 -44161-5 0  9997,2 55789  70.0003 269.6930 0002876 267.0337  93.0493 14.98328655 34817,6950.197,96.107,574.061,570.063,0.0
55789.0,STARLINK-5815,PAYLOAD,2023-10-09 08:28:02,14.98329603,0.0002714,70.0004,269.0191,266.726,93.3589,1.9811e-05,1.43e-06,0.0,0 STARLINK-5815,1 55789U 23028BA  23282.35280513  .00000143  00000-0  19811-4 0  9995,2 55789  70.0004 269.0191 0002714 266.7260  93.3589 14.98329603 34861,6950.194,96.107,573.945,570.173,0.0
55789.0,STARLINK-5815,PAYLOAD,2023-10-09 16:28:42,14.98355786,0.0002527,70.0008,268.1766,276.9547,83.1325,-0.00050975,-6.174e-05,0.0,0 STARLINK-5815,1 55789U 23028BA  23282.68660141 -.00006174  00000-0 -50975-3 0  9997,2 55789  70.0008 268.1766 0002527 276.9547  83.1325 14.98355786 34907,6950.113,96.105,573.734,570.222,0.0
55789.0,STARLINK-5815,PAYLOAD,2023-10-10 02:05:31,14.98326759,0.0002932,70.0001,267.1676,270.488,89.5944,5.8182e-06,-2.4e-07,0.0,0 STARLINK-5815,1 55789U 23028BA  23283.08716718 -.00000024  00000-0  58182-5 0  9991,2 55789  70.0001 267.1676 0002932 270.4880  89.5944 14.98326759 34969,6950.203,96.107,574.106,570.03,0.0
55789.0,STARLINK-5815,PAYLOAD,2023-10-10 08:30:03,14.98333011,0.000266,70.0003,266.4939,280.1606,79.9253,4.9985e-05,5.04e-06,0.0,0 STARLINK-5815,1 55789U 23028BA  23283.35420353  .00000504  00000-0  49985-4 0  9990,2 55789  70.0003 266.4939 0002660 280.1606  79.9253 14.98333011 35008,6950.184,96.107,573.897,570.2,0.0
55789.0,STARLINK-5815,PAYLOAD,2023-10-10 16:30:43,14.98327149,0.0003065,70.0005,265.6523,269.0627,91.0181,-3.2517e-05,-4.81e-06,0.0,0 STARLINK-5815,1 55789U 23028BA  23283.68800716 -.00000481  00000-0 -32517-4 0  9990,2 55789  70.0005 265.6523 0003065 269.0627  91.0181 14.98327149 35054,6950.202,96.107,574.197,569.936,0.0
